*******************************************************************************
Ephemeris / WWW_USER Mon Jul 15 19:07:43 2024 Pasadena, USA      / Horizons    
*******************************************************************************
Target body name: (2017 SN16)                     {source: JPL#20}
Center body name: Earth (399)                     {source: DE441}
Center-site name: Gemini South Obs., Cerro Pachon
*******************************************************************************
Start time      : A.D. 2018-Dec-08 23:45:00.0000 UT      
Stop  time      : A.D. 2018-Dec-09 09:24:00.0000 UT      
Step-size       : 1 minutes
*******************************************************************************
Target pole/equ : undefined
Target radii    : undefined                                                    
Center geodetic : 289.2634, -30.2406227, 2.71233  {E-lon(deg),Lat(deg),Alt(km)}
Center cylindric: 289.2634,5517.21435,-3194.81213 {E-lon(deg),Dxy(km),Dz(km)}
Center pole/equ : ITRF93                          {East-longitude positive}
Center radii    : 6378.137, 6378.137, 6356.752 km {Equator_a, b, pole_c}       
Target primary  : Sun
Vis. interferer : MOON (R_eq= 1737.400) km        {source: DE441}
Rel. light bend : Sun                             {source: DE441}
Rel. lght bnd GM: 1.3271E+11 km^3/s^2                                          
Small-body perts: Yes                             {source: SB441-N16}
Atmos refraction: NO (AIRLESS)
RA format       : HMS
Time format     : CAL 
Calendar mode   : Mixed Julian/Gregorian
RTS-only print  : NO       
EOP file        : eop.240715.p241008                                           
EOP coverage    : DATA-BASED 1962-JAN-20 TO 2024-JUL-15. PREDICTS-> 2024-OCT-07
Units conversion: 1 au= 149597870.700 km, c= 299792.458 km/s, 1 day= 86400.0 s 
Table cut-offs 1: Elevation (-90.0deg=NO ),Airmass (>38.000=NO), Daylight (YES)
Table cut-offs 2: Solar elongation (  0.0,180.0=NO ),Local Hour Angle( 0.0=NO )
Table cut-offs 3: RA/DEC angular rate (     0.0=NO )                           
*******************************************************************************
Initial IAU76/J2000 heliocentric ecliptic osculating elements (au, days, deg.):
  EPOCH=  2458305.5 ! 2018-Jul-06.00 (TDB)         Residual RMS= .23751        
   EC= .1454884975659386   QR= .8682464985612274   TP= 2458145.5722438502      
   OM= 2.759719470837934   W=  137.1017088998531   IN= 13.38264682844635       
  Equivalent ICRF heliocentric cartesian coordinates (au, au/d):
   X= 5.756755401261899E-01  Y=-7.953424559592890E-01  Z=-6.031561894536019E-01
  VX= 1.332076113263395E-02 VY= 5.454663564585547E-03 VZ= 3.896229736425836E-03
Asteroid physical parameters (km, seconds, rotational period in hours):        
   GM= n.a.                RAD= n.a.               ROTPER= n.a.                
   H= 23.34                G= .150                 B-V= n.a.                   
                           ALBEDO= n.a.            STYP= n.a.                  
*******************************************************************************
 Date__(UT)__HR:MN     R.A._________(ICRF)_________DEC
******************************************************
$$SOE
 2018-Dec-09 07:57     20 19 16.103053 +35 25 38.58308
 2018-Dec-09 07:58     20 19 16.082298 +35 25 39.20729
 2018-Dec-09 07:59 A   20 19 16.061541 +35 25 39.83182
 2018-Dec-09 08:00 A   20 19 16.040782 +35 25 40.45668
 2018-Dec-09 08:01 A   20 19 16.020020 +35 25 41.08186
 2018-Dec-09 08:02 A   20 19 15.999255 +35 25 41.70736
 2018-Dec-09 08:03 A   20 19 15.978487 +35 25 42.33319
 2018-Dec-09 08:04 A   20 19 15.957716 +35 25 42.95934
 2018-Dec-09 08:05 A   20 19 15.936941 +35 25 43.58582
 2018-Dec-09 08:06 A   20 19 15.916163 +35 25 44.21262
 2018-Dec-09 08:07 A   20 19 15.895381 +35 25 44.83974
 2018-Dec-09 08:08 A   20 19 15.874594 +35 25 45.46719
 2018-Dec-09 08:09 A   20 19 15.853804 +35 25 46.09496
 2018-Dec-09 08:10 A   20 19 15.833008 +35 25 46.72305
 2018-Dec-09 08:11 A   20 19 15.812208 +35 25 47.35147
 2018-Dec-09 08:12 A   20 19 15.791403 +35 25 47.98021
 2018-Dec-09 08:13 A   20 19 15.770593 +35 25 48.60928
 2018-Dec-09 08:14 A   20 19 15.749778 +35 25 49.23866
 2018-Dec-09 08:15 A   20 19 15.728957 +35 25 49.86837
 2018-Dec-09 08:16 A   20 19 15.708131 +35 25 50.49840
 2018-Dec-09 08:17 A   20 19 15.687298 +35 25 51.12876
 2018-Dec-09 08:18 A   20 19 15.666459 +35 25 51.75943
 2018-Dec-09 08:19 A   20 19 15.645614 +35 25 52.39043
 2018-Dec-09 08:20 A   20 19 15.624762 +35 25 53.02175
 2018-Dec-09 08:21 A   20 19 15.603904 +35 25 53.65340
 2018-Dec-09 08:22 A   20 19 15.583038 +35 25 54.28536
 2018-Dec-09 08:23 A   20 19 15.562166 +35 25 54.91765
 2018-Dec-09 08:24 A   20 19 15.541286 +35 25 55.55025
 2018-Dec-09 08:25 A   20 19 15.520398 +35 25 56.18318
 2018-Dec-09 08:26 A   20 19 15.499502 +35 25 56.81643
 2018-Dec-09 08:27 A   20 19 15.478599 +35 25 57.45000
 2018-Dec-09 08:28 A   20 19 15.457687 +35 25 58.08389
 2018-Dec-09 08:29 A   20 19 15.436767 +35 25 58.71810
 2018-Dec-09 08:30 A   20 19 15.415838 +35 25 59.35263
 2018-Dec-09 08:31 A   20 19 15.394901 +35 25 59.98747
 2018-Dec-09 08:32 A   20 19 15.373954 +35 26 00.62264
 2018-Dec-09 08:33 A   20 19 15.352998 +35 26 01.25813
 2018-Dec-09 08:34 N   20 19 15.332033 +35 26 01.89394
 2018-Dec-09 08:35 N   20 19 15.311058 +35 26 02.53006
 2018-Dec-09 08:36 N   20 19 15.290073 +35 26 03.16651
 2018-Dec-09 08:37 N   20 19 15.269078 +35 26 03.80327
 2018-Dec-09 08:38 N   20 19 15.248073 +35 26 04.44035
 2018-Dec-09 08:39 N   20 19 15.227058 +35 26 05.07774
 2018-Dec-09 08:40 N   20 19 15.206032 +35 26 05.71546
 2018-Dec-09 08:41 N   20 19 15.184995 +35 26 06.35349
 2018-Dec-09 08:42 N   20 19 15.163946 +35 26 06.99184
 2018-Dec-09 08:43 N   20 19 15.142887 +35 26 07.63050
 2018-Dec-09 08:44 N   20 19 15.121816 +35 26 08.26948
 2018-Dec-09 08:45 N   20 19 15.100734 +35 26 08.90878
 2018-Dec-09 08:46 N   20 19 15.079639 +35 26 09.54839
 2018-Dec-09 08:47 N   20 19 15.058533 +35 26 10.18831
 2018-Dec-09 08:48 N   20 19 15.037414 +35 26 10.82855
 2018-Dec-09 08:49 N   20 19 15.016283 +35 26 11.46911
 2018-Dec-09 08:50 N   20 19 14.995139 +35 26 12.10998
 2018-Dec-09 08:51 N   20 19 14.973982 +35 26 12.75116
 2018-Dec-09 08:52 N   20 19 14.952812 +35 26 13.39266
 2018-Dec-09 08:53 N   20 19 14.931629 +35 26 14.03446
 2018-Dec-09 08:54 N   20 19 14.910433 +35 26 14.67659
 2018-Dec-09 08:55 N   20 19 14.889223 +35 26 15.31902
 2018-Dec-09 08:56 N   20 19 14.867998 +35 26 15.96176
 2018-Dec-09 08:57 N   20 19 14.846760 +35 26 16.60482
 2018-Dec-09 08:58 N   20 19 14.825508 +35 26 17.24818
 2018-Dec-09 08:59 N   20 19 14.804241 +35 26 17.89186
 2018-Dec-09 09:00 N   20 19 14.782959 +35 26 18.53585
 2018-Dec-09 09:01 N   20 19 14.761663 +35 26 19.18014
 2018-Dec-09 09:02 N   20 19 14.740351 +35 26 19.82475
 2018-Dec-09 09:03 N   20 19 14.719025 +35 26 20.46966
 2018-Dec-09 09:04 N   20 19 14.697682 +35 26 21.11489
 2018-Dec-09 09:05 N   20 19 14.676325 +35 26 21.76042
 2018-Dec-09 09:06 N   20 19 14.654951 +35 26 22.40625
 2018-Dec-09 09:07 C   20 19 14.633561 +35 26 23.05240
 2018-Dec-09 09:08 C   20 19 14.612155 +35 26 23.69885
 2018-Dec-09 09:09 C   20 19 14.590733 +35 26 24.34561
 2018-Dec-09 09:10 C   20 19 14.569294 +35 26 24.99267
 2018-Dec-09 09:11 C   20 19 14.547838 +35 26 25.64003
 2018-Dec-09 09:12 C   20 19 14.526365 +35 26 26.28771
 2018-Dec-09 09:13 C   20 19 14.504875 +35 26 26.93568
 2018-Dec-09 09:14 C   20 19 14.483367 +35 26 27.58396
 2018-Dec-09 09:15 C   20 19 14.461842 +35 26 28.23254
 2018-Dec-09 09:16 C   20 19 14.440299 +35 26 28.88143
 2018-Dec-09 09:17 C   20 19 14.418738 +35 26 29.53061
 2018-Dec-09 09:18 C   20 19 14.397159 +35 26 30.18010
 2018-Dec-09 09:19 C   20 19 14.375562 +35 26 30.82989
 2018-Dec-09 09:20 C   20 19 14.353946 +35 26 31.47998
 2018-Dec-09 09:21 C   20 19 14.332311 +35 26 32.13037
 2018-Dec-09 09:22 C   20 19 14.310657 +35 26 32.78105
 2018-Dec-09 09:23 C   20 19 14.288984 +35 26 33.43204
 2018-Dec-09 09:24 C   20 19 14.267292 +35 26 34.08332
